OBJECT_NAME,OBJECT_ID,EPOCH,MEAN_MOTION,ECCENTRICITY,INCLINATION,RA_OF_ASC_NODE,ARG_OF_PERICENTER,MEAN_ANOMALY,EPHEMERIS_TYPE,CLASSIFICATION_TYPE,NORAD_CAT_ID,ELEMENT_SET_NO,REV_AT_EPOCH,BSTAR,MEAN_MOTION_DOT,MEAN_MOTION_DDOT
STARLINK-37440,2026-114H,2026-06-12T05:32:25.526400,15.80924853,.0001657,53.1595,226.6731,60.8268,299.2921,0,U,69189,999,399,.91625579E-3,.184497E-2,0
STARLINK-37282,2026-114J,2026-06-12T04:53:27.818016,15.78100121,.00017753,53.1593,227.2332,31.9364,328.1765,0,U,69190,999,398,.12535151E-2,.223209E-2,0
STARLINK-37422,2026-114K,2026-06-12T18:19:58.271232,15.80929462,.000075,53.1583,224.3238,73.8765,286.2341,0,U,69191,999,407,.49635E-3,.98647E-3,0
STARLINK-37424,2026-114L,2026-06-12T04:53:37.112928,15.78119563,.00013803,53.1591,227.2351,43.1729,316.9401,0,U,69192,999,398,.12558209E-2,.22383E-2,0
STARLINK-36666,2026-114M,2026-06-12T06:12:00.760032,15.80922388,.00013367,53.1583,226.8590,80.9083,279.2091,0,U,69193,999,399,.86456286E-3,.17381E-2,0
STARLINK-37355,2026-114N,2026-06-12T18:19:12.841248,15.80929479,.0001549,53.1585,224.3203,64.0740,296.0442,0,U,69194,999,407,.72145E-3,.144476E-2,0
STARLINK-37166,2026-114P,2026-06-12T06:08:46.320288,15.80929377,.00012835,53.1580,226.8445,70.1185,289.9976,0,U,69195,999,399,.90625237E-3,.182468E-2,0
STARLINK-36933,2026-114Q,2026-06-12T18:18:07.712928,15.80935186,.0000828,53.1584,224.3157,76.6642,283.4473,0,U,69196,999,407,.54827E-3,.109202E-2,0
STARLINK-37419,2026-114R,2026-06-12T06:07:41.058048,15.80873015,.00003415,53.1580,226.8396,169.9060,190.1969,0,U,69197,999,399,.1445252E-2,.294507E-2,0
STARLINK-37321,2026-114S,2026-06-12T18:14:53.262816,15.80946547,.0000815,53.1585,224.2998,74.3961,285.7151,0,U,69198,999,407,.69518E-3,.139212E-2,0
STARLINK-37406,2026-114T,2026-06-12T06:05:32.117280,15.80929388,.00019983,53.1580,226.8294,51.5376,308.5826,0,U,69199,999,399,.98349912E-3,.198457E-2,0
STARLINK-37761,2026-114U,2026-06-12T18:12:43.669728,15.80960306,.0000753,53.1581,224.2902,95.4197,264.6912,0,U,69200,999,407,.87366E-3,.175999E-2,0
STARLINK-37754,2026-114V,2026-06-12T18:11:22.177248,15.80962043,.0000793,53.1578,224.2826,87.4295,272.6819,0,U,69201,999,407,.94538E-3,.190851E-2,0
STARLINK-37649,2026-114W,2026-06-12T06:02:17.494368,15.80942600,.00022239,53.1581,226.8143,34.9871,325.1298,0,U,69202,999,399,.10677731E-2,.216102E-2,0
STARLINK-37604,2026-114X,2026-06-12T06:01:12.531072,15.80937187,.00011225,53.1581,226.8089,88.0148,272.1003,0,U,69203,999,399,.99999335E-3,.201947E-2,0
STARLINK-37669,2026-114Y,2026-06-12T18:08:24.519840,15.80971027,.0001231,53.1580,224.2692,81.2048,278.9114,0,U,69204,999,407,.10556E-2,.213856E-2,0
STARLINK-37691,2026-114Z,2026-06-12T18:17:52.467648,15.78104756,.0000885,53.1587,224.3131,80.2940,279.8181,0,U,69205,999,407,.6273E-3,.109904E-2,0
STARLINK-37671,2026-114AA,2026-06-12T20:00:01.999008,15.78025750,.0001259,53.1586,223.8738,57.5715,27.3258,0,U,69206,999,411,.26099E-3,.44825E-3,0
STARLINK-37647,2026-114AB,2026-06-12T18:07:19.578144,15.80936224,.0000817,53.1588,224.2654,119.4197,240.6907,0,U,69207,999,407,.60152E-3,.120034E-2,0
STARLINK-37562,2026-114AC,2026-06-12T20:00:01.999008,15.78032689,.0001143,53.1588,223.8971,105.9538,327.3741,0,U,69208,999,411,-.18447E-3,-.32543E-3,0
STARLINK-37682,2026-114AD,2026-06-12T05:54:43.809696,15.80845840,.00018276,53.1584,226.7779,48.1811,311.9368,0,U,69209,999,399,.17634541E-2,.36188E-2,0
STARLINK-37402,2026-114AE,2026-06-12T18:01:55.585056,15.80961818,.0000702,53.1581,224.2388,71.4674,288.6425,0,U,69210,999,407,.98222E-3,.198492E-2,0
STARLINK-37613,2026-115A,2026-06-12T20:00:01.999008,15.49120709,.0000729,97.2837,180.9058,52.2325,102.4088,0,U,69211,999,399,.12289E-2,.67158E-3,0
STARLINK-37713,2026-115B,2026-06-12T20:00:01.999008,15.62597772,.0001454,97.2836,181.0073,62.5960,329.9359,0,U,69212,999,399,-.33138E-1,-.2564775E-1,0
STARLINK-37716,2026-115C,2026-06-12T20:00:01.999008,15.67570962,.0001657,97.2837,181.0414,72.8650,39.3078,0,U,69213,999,399,-.27461E-1,-.2590528E-1,0
STARLINK-37620,2026-115D,2026-06-12T20:00:01.999008,15.49175738,.0000461,97.2839,180.8726,62.8844,12.1800,0,U,69214,999,399,.15063E-2,.82658E-3,0
STARLINK-37700,2026-115E,2026-06-12T20:00:01.999008,15.49134968,.0001408,97.2841,180.7829,87.2673,136.1331,0,U,69215,999,399,.10357E-2,.56536E-3,0
STARLINK-37766,2026-115F,2026-06-12T20:00:01.999008,15.71977849,.0001876,97.2835,181.0588,78.8951,74.3697,0,U,69216,999,399,-.2255E-1,-.2561451E-1,0
STARLINK-37763,2026-115G,2026-06-12T20:00:01.999008,15.66682619,.000174,97.2836,181.0368,75.3075,28.2059,0,U,69217,999,399,-.28469E-1,-.2590226E-1,0
STARLINK-37724,2026-115H,2026-06-12T20:00:01.999008,15.76244907,.0001989,97.2838,181.0747,83.6641,106.0850,0,U,69218,999,399,-.18809E-1,-.2512077E-1,0
