STARLINK-37440          
1 69189U 26114H   26163.23085100  .00184497  00000+0  91626-3 0  9993
2 69189  53.1595 226.6731 0001657  60.8268 299.2921 15.80924853  3999
STARLINK-37282          
1 69190U 26114J   26163.20379419  .00223209  00000+0  12535-2 0  9997
2 69190  53.1593 227.2332 0001775  31.9364 328.1765 15.78100121  3988
STARLINK-37422          
1 69191U 26114K   26163.76386888  .00098647  00000+0  49635-3 0  9995
2 69191  53.1583 224.3238 0000750  73.8765 286.2341 15.80929462  4078
STARLINK-37424          
1 69192U 26114L   26163.20390177  .00223830  00000+0  12558-2 0  9998
2 69192  53.1591 227.2351 0001380  43.1729 316.9401 15.78119563  3983
STARLINK-36666          
1 69193U 26114M   26163.25834213  .00173810  00000+0  86456-3 0  9999
2 69193  53.1583 226.8590 0001336  80.9083 279.2091 15.80922388  3995
STARLINK-37355          
1 69194U 26114N   26163.76334307  .00144476  00000+0  72145-3 0  9991
2 69194  53.1585 224.3203 0001549  64.0740 296.0442 15.80929479  4076
STARLINK-37166          
1 69195U 26114P   26163.25609167  .00182468  00000+0  90625-3 0  9991
2 69195  53.1580 226.8445 0001283  70.1185 289.9976 15.80929377  3993
STARLINK-36933          
1 69196U 26114Q   26163.76258927  .00109202  00000+0  54827-3 0  9991
2 69196  53.1584 224.3157 0000828  76.6642 283.4473 15.80935186  4070
STARLINK-37419          
1 69197U 26114R   26163.25533632  .00294507  00000+0  14453-2 0  9998
2 69197  53.1580 226.8396 0000341 169.9060 190.1969 15.80873015  3995
STARLINK-37321          
1 69198U 26114S   26163.76033869  .00139212  00000+0  69518-3 0  9996
2 69198  53.1585 224.2998 0000815  74.3961 285.7151 15.80946547  4071
STARLINK-37406          
1 69199U 26114T   26163.25384395  .00198457  00000+0  98350-3 0  9996
2 69199  53.1580 226.8294 0001998  51.5376 308.5826 15.80929388  3991
STARLINK-37761          
1 69200U 26114U   26163.75883877  .00175999  00000+0  87366-3 0  9994
2 69200  53.1581 224.2902 0000753  95.4197 264.6912 15.80960306  4072
STARLINK-37754          
1 69201U 26114V   26163.75789557  .00190851  00000+0  94538-3 0  9998
2 69201  53.1578 224.2826 0000793  87.4295 272.6819 15.80962043  4073
STARLINK-37649          
1 69202U 26114W   26163.25159137  .00216102  00000+0  10678-2 0  9999
2 69202  53.1581 226.8143 0002223  34.9871 325.1298 15.80942600  3997
STARLINK-37604          
1 69203U 26114X   26163.25083948  .00201947  00000+0  99999-3 0  9991
2 69203  53.1581 226.8089 0001122  88.0148 272.1003 15.80937187  3990
STARLINK-37669          
1 69204U 26114Y   26163.75583935  .00213856  00000+0  10556-2 0  9991
2 69204  53.1580 224.2692 0001231  81.2048 278.9114 15.80971027  4075
STARLINK-37691          
1 69205U 26114Z   26163.76241282  .00109904  00000+0  62730-3 0  9999
2 69205  53.1587 224.3131 0000885  80.2940 279.8181 15.78104756  4074
STARLINK-37671          
1 69206U 26114AA  26163.83335647  .00044825  00000+0  26099-3 0  9995
2 69206  53.1586 223.8738 0001259  57.5715  27.3258 15.78025750  4116
STARLINK-37647          
1 69207U 26114AB  26163.75508771  .00120034  00000+0  60152-3 0  9992
2 69207  53.1588 224.2654 0000817 119.4197 240.6907 15.80936224  4078
STARLINK-37562          
1 69208U 26114AC  26163.83335647 -.00032543  00000+0 -18447-3 0  9991
2 69208  53.1588 223.8971 0001143 105.9538 327.3741 15.78032689  4111
STARLINK-37682          
1 69209U 26114AD  26163.24634039  .00361880  00000+0  17635-2 0  9998
2 69209  53.1584 226.7779 0001827  48.1811 311.9368 15.80845840  3990
STARLINK-37402          
1 69210U 26114AE  26163.75133779  .00198492  00000+0  98222-3 0  9990
2 69210  53.1581 224.2388 0000702  71.4674 288.6425 15.80961818  4073
STARLINK-37613          
1 69211U 26115A   26163.83335647  .00067158  00000+0  12289-2 0  9991
2 69211  97.2837 180.9058 0000729  52.2325 102.4088 15.49120709  3997
STARLINK-37713          
1 69212U 26115B   26163.83335647 -.02564775  00000+0 -33138-1 0  9998
2 69212  97.2836 181.0073 0001454  62.5960 329.9359 15.62597772  3991
STARLINK-37716          
1 69213U 26115C   26163.83335647 -.02590528  00000+0 -27461-1 0  9996
2 69213  97.2837 181.0414 0001657  72.8650  39.3078 15.67570962  3994
STARLINK-37620          
1 69214U 26115D   26163.83335647  .00082658  00000+0  15063-2 0  9999
2 69214  97.2839 180.8726 0000461  62.8844  12.1800 15.49175738  3990
STARLINK-37700          
1 69215U 26115E   26163.83335647  .00056536  00000+0  10357-2 0  9997
2 69215  97.2841 180.7829 0001408  87.2673 136.1331 15.49134968  3996
STARLINK-37766          
1 69216U 26115F   26163.83335647 -.02561451  00000+0 -22550-1 0  9996
2 69216  97.2835 181.0588 0001876  78.8951  74.3697 15.71977849  3996
STARLINK-37763          
1 69217U 26115G   26163.83335647 -.02590226  00000+0 -28469-1 0  9994
2 69217  97.2836 181.0368 0001740  75.3075  28.2059 15.66682619  3995
STARLINK-37724          
1 69218U 26115H   26163.83335647 -.02512077  00000+0 -18809-1 0  9990
2 69218  97.2838 181.0747 0001989  83.6641 106.0850 15.76244907  3994
